[Satellite]
VERSION=1.1
NAME=RADUGA 27 [-]
NICKNAME=RADUGA 27 [-]
TLE1=1 21132U 91014A   17186.06573854  .00000006  00000-0  00000-0 0  9991
TLE2=2 21132  15.5687   6.1632 0001735 280.0765  79.0933  1.00372197 96528
